[{"OBJECT_NAME":"DONGPO 09","OBJECT_ID":"2022-167D","EPOCH":"2026-03-09T22:41:56.215392","MEAN_MOTION":15.33957076,"ECCENTRICITY":0.00036388,"INCLINATION":97.6808,"RA_OF_ASC_NODE":235.7428,"ARG_OF_PERICENTER":115.2371,"MEAN_ANOMALY":244.9249,"EPHEMERIS_TYPE":0,"CLASSIFICATION_TYPE":"U","NORAD_CAT_ID":54685,"ELEMENT_SET_NO":999,"REV_AT_EPOCH":18022,"BSTAR":0.00050563217,"MEAN_MOTION_DOT":0.00016547,"MEAN_MOTION_DDOT":0},{"OBJECT_NAME":"OBJECT N","OBJECT_ID":"2025-155N","EPOCH":"2026-03-09T22:27:42.648192","MEAN_MOTION":15.35502024,"ECCENTRICITY":0.00088608,"INCLINATION":97.4405,"RA_OF_ASC_NODE":38.3729,"ARG_OF_PERICENTER":136.1354,"MEAN_ANOMALY":224.0595,"EPHEMERIS_TYPE":0,"CLASSIFICATION_TYPE":"U","NORAD_CAT_ID":64888,"ELEMENT_SET_NO":999,"REV_AT_EPOCH":6567,"BSTAR":0.00095623277,"MEAN_MOTION_DOT":0.00033051,"MEAN_MOTION_DDOT":0}]
